0 SMS 2
1 07648U 75011A   13279.93718763 -.00000239  00000-0  10000-3 0   243
2 07648 014.2540 336.6017 0015899 134.3387 225.7977 00.99514711 89621
0 SMS 2
1 07648U 75011A   13283.95653166 -.00000282  00000-0  10000-3 0   254
2 07648 014.2515 336.5609 0015526 134.7239 225.3989 00.99514063 89669
0 SMS 2
1 07648U 75011A   13285.96624453 -.00000296  00000-0  10000-3 0   260
2 07648 014.2504 336.5394 0015664 134.2411 225.8823 00.99513494 89689
0 SMS 2
1 07648U 75011A   13290.99047862 -.00000296  00000-0  10000-3 0   273
2 07648 014.2474 336.4884 0015681 134.7581 225.3480 00.99511928 89730
0 SMS 2
1 07648U 75011A   13293.00020705 -.00000282  00000-0  10000-3 0   281
2 07648 014.2460 336.4678 0015689 134.8350 225.2676 00.99511203 89753
